{"fetched_at":"2026-03-29T02:12:04Z","count":15717,"tles":[{"name":"ZHONGXING-11","line1":"1 39157U 13020A   26086.77977723 -.00000308  00000+0  00000+0 0  9992","line2":"2 39157   0.0310 301.3781 0001020  84.5221 177.8728  1.00268189 47083","category":"Other"}]}